C/2015 V3 (PANSTARRS),e,86.2411,2.2603,0.7113,627.8933,0.0000626,0.99326070,0.0000,11/24.0056/2015,2000,g  9.0,4.0
# From MPC104791
C/2015 V4 (PANSTARRS),e,60.7640,179.9136,307.0468,18.50574,0.0123807,0.70476207,15.8123,02/27.0/2020,2000,g  8.5,4.0
# From MPC115881
C/2015 VL62 (Lemmon-Yeung-PANSTARRS),h,08/28.0727/2017,165.8152,95.0901,128.7272,1.001149,2.713978,2000,8.0,4.0
# From MPC102098
C/2015 WZ (PANSTARRS),e,134.5675,40.1416,66.6640,146.4598,0.0005561,0.99059361,0.0000,04/14.0473/2016,2000,g 15.0,4.0
# From MPC109142
C/2015 W1 (Gibbs),h,05/15.2267/2016,87.3747,114.3159,48.1984,1.000007,2.241826,2000,13.0,4.0
# From MPC101098
P/2015 W2 (Catalina),e,11.6069,294.2529,117.5635,7.301219,0.0499587,0.63336206,80.4785,02/27.0/2020,2000,g 13.0,4.0
# From MPC101098
P/2015 X1 (PANSTARRS),e,12.1517,161.7740,218.9870,3.630639,0.1424720,0.41891661,228.4147,02/27.0/2020,2000,g 16.0,4.0
# From MPEC 2020-AA5
C/2015 XY1 (Lemmon),h,04/28.6357/2018,148.8556,281.6254,196.2805,1.003869,7.925998,2000,5.5,4.0
# From MPC100281
C/2015 X2 (Catalina),e,72.0924,101.1004,42.3646,15.82654,0.0156540,0.87828484,23.9670,02/27.0/2020,2000,g 16.0,4.0
# From MPC 97498
P/2015 X3 (PANSTARRS),e,24.3826,77.3323,306.6664,5.011959,0.0878401,0.43820033,146.2394,02/27.0/2020,2000,g 15.0,4.0
# From MPC109142
C/2015 X4 (Elenin),e,29.5012,262.6198,176.2665,17.96567,0.0129431,0.81116902,20.4188,02/27.0/2020,2000,g 10.0,4.0
# From MPC119995
C/2015 X5 (PANSTARRS),h,12/30.1779/2017,124.3078,122.3423,27.7037,1.002853,6.799614,2000,7.5,4.0
# From MPC115881
P/2015 X6 (PANSTARRS),e,4.5648,106.9472,329.9022,2.752427,0.2158392,0.17232554,309.6568,02/27.0/2020,2000,g 16.0,4.0
# From MPC109143
C/2015 X7 (ATLAS),h,07/29.5452/2016,57.5626,139.9106,348.4560,1.000243,3.684968,2000,9.0,4.0
# From MPC107048
C/2015 X8 (NEOWISE),e,155.2114,191.1506,20.4253,19.76330,0.0112180,0.93998415,17.8013,02/27.0/2020,2000,g 16.0,4.0
# From MPC109143
C/2015 Y1 (LINEAR),e,71.1747,135.8119,24.6931,255.1078,0.0002419,0.99013577,0.0000,05/14.2851/2016,2000,g 12.0,4.0
# From MPC105543
C/2015 YG1 (NEOWISE),e,57.2760,350.5271,102.5200,17.01023,0.0140488,0.87853465,22.6639,02/27.0/2020,2000,g 13.0,4.0
# From MPC119995
C/2016 A1 (PANSTARRS),h,11/23.0195/2017,121.2046,128.2009,10.2889,1.001960,5.325682,2000,6.0,4.0
# From MPC100282
P/2016 A2 (Christensen),e,26.4069,291.6141,141.6419,4.748821,0.0952413,0.27134555,162.9509,02/27.0/2020,2000,g 11.5,4.0
# From MPC115881
P/2016 A3 (PANSTARRS),e,8.5126,187.3284,340.7802,7.888208,0.0444873,0.38821331,45.9847,02/27.0/2020,2000,g 10.0,4.0
# From MPC109143
C/2016 A5 (PANSTARRS),e,40.2399,136.1693,321.5378,666.1383,0.0000573,0.99557985,0.0000,06/26.8216/2015,2000,g 13.5,4.0
# From MPC109143
C/2016 A6 (PANSTARRS),e,120.9356,300.3675,141.0732,207.1018,0.0003307,0.98837992,0.0000,11/06.3213/2015,2000,g 15.0,4.0
# From MPC102098
P/2016 A7 (PANSTARRS),e,16.6293,221.4759,352.6268,5.030289,0.0873604,0.56571475,127.7819,02/27.0/2020,2000,g 16.0,4.0
# From MPC106345
C/2016 A8 (LINEAR),e,148.2431,111.3367,130.3605,34.27934,0.0049108,0.94500801,6.2682,02/27.0/2020,2000,g 12.0,4.0
# From MPC107048
C/2016 B1 (NEOWISE),e,50.4679,231.9741,8.6647,439.9387,0.0001068,0.99269793,0.0000,12/04.8166/2016,2000,g  9.5,4.0
# From MPC109143
P/2016 BA14 (PANSTARRS),e,18.8976,180.5370,351.9092,3.024080,0.1874192,0.66528467,270.7292,02/27.0/2020,2000,g 21.0,4.0
# From MPC110494
C/2016 C1 (PANSTARRS),h,02/19.2665/2016,56.2135,181.7991,328.7795,1.002620,8.466975,2000,5.5,4.0
# From MPC101098
C/2016 C2 (NEOWISE),e,38.0929,24.4220,214.5319,65.88642,0.0018429,0.97623872,0.0000,04/19.5988/2016,2000,g 16.0,4.0
# From MPC110494
C/2016 E1 (PANSTARRS),h,06/03.9755/2017,131.8920,233.0558,47.4552,1.005429,8.179669,2000,6.5,4.0
# From MPC 99821
C/2016 E2 (Kowalski),e,135.9131,186.8253,321.9160,139.5476,0.0005979,0.99228781,0.0000,02/06.7455/2016,2000,g 20.0,4.0
# From MPC102098
P/2016 G1 (PANSTARRS),e,10.9691,204.0594,111.2974,2.582327,0.2375130,0.21090001,267.4918,02/27.0/2020,2000,g 14.0,4.0
# From MPEC 2017-D91
P/2016 J1-A (PANSTARRS),e,14.3248,199.8324,46.8524,3.174326,0.1742716,0.22820999,233.7993,02/27.0/2020,2000,g 16.5,4.0
# From MPEC 2017-A77
P/2016 J1-B (PANSTARRS),e,14.3275,199.8372,46.7436,3.173956,0.1743021,0.22806118,233.9149,02/27.0/2020,2000,g 17.0,4.0
# From MPC101099
C/2016 J2 (Denneau),e,130.3395,186.3386,318.6213,626.2995,0.0000629,0.99757130,0.0000,04/12.0705/2016,2000,g 17.0,4.0
# From MPC102099
C/2016 KA (Catalina),e,104.6781,317.5114,63.1868,5194,0.0000026,0.99895919,0.0000,02/02.1123/2016,2000,g  8.5,4.0
# From MPC104792
C/2016 K1 (LINEAR),e,90.9103,325.6341,18.2706,16910,0.0000004,0.99986438,0.0000,07/13.2812/2016,2000,g 13.0,4.0
# From MPC119995
C/2016 M1 (PANSTARRS),e,91.0001,92.2033,209.8642,3368,0.0000050,0.99934347,0.0000,08/10.2612/2018,2000,g  5.0,4.0
# From MPC115881
C/2016 N4 (MASTER),e,72.5865,354.0051,55.9411,2405,0.0000084,0.99866999,0.0000,09/16.4677/2017,2000,g  8.5,4.0
# From MPC119995
C/2016 N6 (PANSTARRS),e,105.8405,298.9863,162.7744,1853,0.0000124,0.99856040,0.0000,07/18.1310/2018,2000,g  7.0,4.0
# From MPC102099
P/2016 P1 (PANSTARRS),e,24.4536,319.5651,270.0376,3.195054,0.1725786,0.28939179,279.0532,02/27.0/2020,2000,g 15.0,4.0
# From MPC102099
C/2016 P4 (PANSTARRS),e,29.8817,320.7419,356.1403,390.4453,0.0001278,0.98490934,0.0000,10/17.8022/2016,2000,g 10.5,4.0
# From MPC118093
C/2016 Q2 (PANSTARRS),e,109.3905,322.3010,84.4867,13189,0.0000007,0.99946298,0.0000,05/11.3702/2021,2000,g  6.0,4.0
# From MPC102955
C/2016 Q4 (Kowalski),e,7.2576,271.2848,99.3925,16.88789,0.0142017,0.58044219,10.8129,02/27.0/2020,2000,g  7.0,4.0
# From MPC119995
C/2016 R2 (PANSTARRS),e,58.2250,80.5693,33.1902,581.1594,0.0000703,0.99552084,0.0000,05/09.4120/2018,2000,g  7.0,4.0
# From MPC102099
C/2016 R3 (Borisov),e,53.0438,78.6504,118.1879,200.1745,0.0003480,0.99774611,0.0000,10/10.5649/2016,2000,g 18.0,4.0
# From MPC109144
P/2016 R4 (Gibbs),e,10.8677,168.2894,173.9945,5.331784,0.0800562,0.47587562,105.3507,02/27.0/2020,2000,g 12.5,4.0
# From MPC105543
P/2016 S1 (PANSTARRS),e,94.6493,227.5182,273.2673,8.280107,0.0413666,0.71024016,44.5770,02/27.0/2020,2000,g 12.0,4.0
# From MPC105238
C/2016 T1 (Matheny),e,129.8461,56.2725,137.3856,123.3123,0.0007198,0.98132586,0.0000,02/01.2974/2017,2000,g 14.5,4.0
# From MPC107685
C/2016 T2 (Matheny),e,81.3600,339.1434,92.2541,99.17466,0.0009979,0.98077000,0.0000,12/28.9958/2016,2000,g 14.5,4.0
# From MPC110082
C/2016 T3 (PANSTARRS),e,22.6773,271.7416,194.6872,134.5968,0.0006312,0.98030734,0.0000,09/06.6552/2017,2000,g 10.5,4.0
# From MPC103847
C/2016 U1 (NEOWISE),h,01/14.0228/2017,46.4022,61.4567,162.8292,1.000394,0.321516,2000,17.0,4.0
# From MPC106345
C/2016 VZ18 (PANSTARRS),e,23.9996,98.9238,36.4093,172.1121,0.0004365,0.99469438,0.0000,03/06.4104/2017,2000,g 19.5,4.0
# From MPC106345
P/2016 WM48 (Lemmon),e,117.4228,59.9019,36.0924,8.171520,0.0421939,0.78417103,46.3119,02/27.0/2020,2000,g 15.0,4.0
# From MPC119995
C/2016 X1 (Lemmon),e,26.4547,256.4225,224.5315,1451,0.0000178,0.99478747,0.0000,04/29.2712/2019,2000,g  6.0,4.0
# From MPC108594
C/2017 A1 (PANSTARRS),e,49.7940,121.0410,2.0680,77.43485,0.0014464,0.97039745,0.0000,05/16.5565/2017,2000,g 13.0,4.0
# From MPC108594
C/2017 A3 (Elenin),e,98.5369,97.9075,304.0568,43.49219,0.0034363,0.91146724,3.8564,02/27.0/2020,2000,g  9.5,4.0
# From MPC114598
C/2017 AB5 (PANSTARRS),e,32.4339,42.6637,78.3620,2972,0.0000061,0.99689891,0.0000,02/16.5319/2018,2000,g  5.5,4.0
# From MPC119995
C/2017 B3 (LINEAR),h,02/02.6197/2019,54.1767,2.1789,284.7746,1.001946,3.921688,2000,6.0,4.0
# From MPC103847
P/2017 B4 (PANSTARRS),e,20.0584,121.4578,11.0197,4.410520,0.1064068,0.36495152,359.9130,01/05.0/2017,2000,g 14.5,4.0
# From MPC104793
C/2017 C1 (NEOWISE),e,65.7427,357.4870,110.1321,20.62382,0.0105233,0.92721712,11.9387,02/27.0/2020,2000,g 18.0,4.0
# From MPC107685
C/2017 C2 (PANSTARRS),e,118.5892,249.8120,138.6642,97.45871,0.0010244,0.97511125,0.0000,01/21.6090/2017,2000,g 14.0,4.0
# From MPC104793
P/2017 D1 (Fuls),e,20.7608,82.1773,8.1100,4.829608,0.0928616,0.43683950,124.5273,02/27.0/2020,2000,g 14.0,4.0
# From MPC112391
C/2017 D2 (Barros),e,31.2565,330.9857,334.4451,2846,0.0000065,0.99912593,0.0000,07/14.7948/2017,2000,g 11.0,4.0
# From MPC114598
C/2017 D3 (ATLAS),h,04/27.2038/2017,125.5759,186.6464,340.8480,1.001942,4.973898,2000,8.0,4.0
# From MPC110495
P/2017 D4 (PANSTARRS),e,10.5299,264.9377,212.3285,7.570090,0.0473208,0.62878744,60.0349,02/27.0/2020,2000,g 13.0,4.0
# From MPC104794
C/2017 D5 (PANSTARRS),e,131.0592,92.7354,287.7950,114.9532,0.0007997,0.98117850,0.0000,01/09.2923/2017,2000,g 16.0,4.0
# From MPC106346
C/2017 E1 (Borisov),h,04/10.4577/2017,14.5648,142.6161,152.6083,1.002967,0.900649,2000,14.0,4.0
# From MPC109144
C/2017 E2 (Tsuchinshan),e,79.0367,11.5753,89.3897,21.54600,0.0098549,0.89086325,13.6631,02/27.0/2020,2000,g 11.5,4.0
# From MPC115882
C/2017 E3 (PANSTARRS),h,06/08.1851/2017,70.6248,220.7285,334.5137,1.007111,5.936692,2000,6.5,4.0
# From MPC105239
C/2017 E4 (Lovejoy),h,04/23.5307/2017,88.1282,223.1170,87.0770,1.001503,0.491692,2000,17.0,4.0
# From MPC105239
C/2017 E5 (Lemmon),e,122.6609,206.2841,306.8799,386.4552,0.0001297,0.99537395,0.0000,06/10.5636/2016,2000,g 13.0,4.0
# From MPC111769
C/2017 F1 (Lemmon),h,11/30.6091/2017,146.4712,158.7785,64.7895,1.004258,4.497658,2000,10.5,4.0
# From MPC114598
C/2017 F2 (PANSTARRS),h,11/27.8035/2017,42.5100,38.6697,135.0474,1.004597,6.931492,2000,7.5,4.0
# From MPC104794
P/2017 G1 (PANSTARRS),e,4.7744,249.6280,224.5808,7.293305,0.0500400,0.65332801,70.0219,02/27.0/2020,2000,g 13.5,4.0
# From MPC108595
P/2017 G2 (PANSTARRS),e,47.9519,79.7973,105.6065,8.079459,0.0429171,0.64867681,42.4752,02/27.0/2020,2000,g 13.0,4.0
# From MPC109144
C/2017 G3 (PANSTARRS),e,159.0586,279.4802,73.1497,306.1882,0.0001840,0.99153652,0.0000,04/15.4152/2017,2000,g 14.0,4.0
# From MPC115882
C/2017 K1 (PANSTARRS),h,03/16.8531/2018,154.0090,225.6491,4.3575,1.001270,7.288611,2000,7.0,4.0
# From MPC119995
